GLOBALSTAR M023         
1 25621U 99004A   25031.56923340 -.00000126  00000+0 -12507-3 0  9999
2 25621  52.0110 109.4461 0010267 183.3314 316.6244 12.62494112198478
GLOBALSTAR M040         
1 25622U 99004B   25031.54233578 -.00000025  00000+0  44328-3 0  9998
2 25622  51.9915 113.4783 0001495 109.2566 263.6642 12.61999786198009
GLOBALSTAR M036         
1 25623U 99004C   25031.57404341 -.00000058  00000+0  35900-3 0  9992
2 25623  51.9939 240.4040 0011436 146.6490 257.6457 11.86591735162769
GLOBALSTAR M038         
1 25624U 99004D   25031.63466604 -.00000048  00000+0  38567-3 0  9991
2 25624  51.9973 104.8260 0002542 129.6373  36.3761 12.32519585185539
GLOBALSTAR M022         
1 25649U 99012A   25031.52958221 -.00000069  00000+0  21637-3 0  9999
2 25649  52.0058 302.4018 0001708 267.5181 263.6125 12.02495087159932
GLOBALSTAR M041         
1 25650U 99012B   25031.40066206 -.00000076  00000+0  12173-3 0  9994
2 25650  51.9997 180.0310 0002779  69.6258 290.4877 11.96670850161901
GLOBALSTAR M046         
1 25651U 99012C   25031.63981056 -.00000167  00000+0 -86805-3 0  9994
2 25651  52.0037 257.2205 0002358   6.1056  28.1323 12.09405561167148
GLOBALSTAR M037         
1 25652U 99012D   25031.60112181 -.00000028  00000+0  42355-3 0  9994
2 25652  51.9978 240.0188 0000953 226.2291 184.6352 12.62435323194021
